[{"OBJECT_NAME":"KINEIS-1E","OBJECT_ID":"2024-114E","EPOCH":"2026-03-09T22:57:11.384064","MEAN_MOTION":14.80427699,"ECCENTRICITY":0.0002464,"INCLINATION":97.9929,"RA_OF_ASC_NODE":93.4952,"ARG_OF_PERICENTER":86.0273,"MEAN_ANOMALY":274.122,"EPHEMERIS_TYPE":0,"CLASSIFICATION_TYPE":"U","NORAD_CAT_ID":60083,"ELEMENT_SET_NO":999,"REV_AT_EPOCH":9270,"BSTAR":0.00020731869,"MEAN_MOTION_DOT":1.531e-5,"MEAN_MOTION_DDOT":0},{"OBJECT_NAME":"KUIPER-00118","OBJECT_ID":"2025-171Y","EPOCH":"2026-03-09T11:44:20.268672","MEAN_MOTION":14.80076244,"ECCENTRICITY":5.54e-5,"INCLINATION":51.8989,"RA_OF_ASC_NODE":176.4665,"ARG_OF_PERICENTER":68.0041,"MEAN_ANOMALY":292.098,"EPHEMERIS_TYPE":0,"CLASSIFICATION_TYPE":"U","NORAD_CAT_ID":65154,"ELEMENT_SET_NO":999,"REV_AT_EPOCH":3261,"BSTAR":0.00082993756,"MEAN_MOTION_DOT":6.133e-5,"MEAN_MOTION_DDOT":0}]
